<?xml version="1.0" encoding="UTF-8"?>
<ndm xmlns:xsi="http://www.w3.org/2001/XMLSchema-instance" xsi:noNamespaceSchemaLocation="https://sanaregistry.org/r/ndmxml_unqualified/ndmxml-2.0.0-master-2.0.xsd">
<omm id="CCSDS_OMM_VERS" version="2.0">
<header><CREATION_DATE/><ORIGINATOR/></header><body><segment><metadata><OBJECT_NAME>QIANFAN-91</OBJECT_NAME><OBJECT_ID>2025-233A</OBJECT_ID><CENTER_NAME>EARTH</CENTER_NAME><REF_FRAME>TEME</REF_FRAME><TIME_SYSTEM>UTC</TIME_SYSTEM><MEAN_ELEMENT_THEORY>SGP4</MEAN_ELEMENT_THEORY></metadata><data><meanElements><EPOCH>2025-11-22T23:01:12.344160</EPOCH><MEAN_MOTION>14.12077200</MEAN_MOTION><ECCENTRICITY>.00180631</ECCENTRICITY><INCLINATION>88.9963</INCLINATION><RA_OF_ASC_NODE>64.3257</RA_OF_ASC_NODE><ARG_OF_PERICENTER>97.5978</ARG_OF_PERICENTER><MEAN_ANOMALY>262.7260</MEAN_ANOMALY></meanElements><tleParameters><EPHEMERIS_TYPE>0</EPHEMERIS_TYPE><CLASSIFICATION_TYPE>U</CLASSIFICATION_TYPE><NORAD_CAT_ID>66033</NORAD_CAT_ID><ELEMENT_SET_NO>999</ELEMENT_SET_NO><REV_AT_EPOCH>521</REV_AT_EPOCH><BSTAR>.32574843E-3</BSTAR><MEAN_MOTION_DOT>.612E-5</MEAN_MOTION_DOT><MEAN_MOTION_DDOT>0</MEAN_MOTION_DDOT></tleParameters></data></segment></body></omm>
<omm id="CCSDS_OMM_VERS" version="2.0">
<header><CREATION_DATE/><ORIGINATOR/></header><body><segment><metadata><OBJECT_NAME>QIANFAN-92</OBJECT_NAME><OBJECT_ID>2025-233B</OBJECT_ID><CENTER_NAME>EARTH</CENTER_NAME><REF_FRAME>TEME</REF_FRAME><TIME_SYSTEM>UTC</TIME_SYSTEM><MEAN_ELEMENT_THEORY>SGP4</MEAN_ELEMENT_THEORY></metadata><data><meanElements><EPOCH>2025-11-23T10:58:06.960864</EPOCH><MEAN_MOTION>14.10199830</MEAN_MOTION><ECCENTRICITY>.0016991</ECCENTRICITY><INCLINATION>88.9962</INCLINATION><RA_OF_ASC_NODE>64.2702</RA_OF_ASC_NODE><ARG_OF_PERICENTER>97.9363</ARG_OF_PERICENTER><MEAN_ANOMALY>262.3751</MEAN_ANOMALY></meanElements><tleParameters><EPHEMERIS_TYPE>0</EPHEMERIS_TYPE><CLASSIFICATION_TYPE>U</CLASSIFICATION_TYPE><NORAD_CAT_ID>66034</NORAD_CAT_ID><ELEMENT_SET_NO>999</ELEMENT_SET_NO><REV_AT_EPOCH>528</REV_AT_EPOCH><BSTAR>.24572E-3</BSTAR><MEAN_MOTION_DOT>.449E-5</MEAN_MOTION_DOT><MEAN_MOTION_DDOT>0</MEAN_MOTION_DDOT></tleParameters></data></segment></body></omm>
<omm id="CCSDS_OMM_VERS" version="2.0">
<header><CREATION_DATE/><ORIGINATOR/></header><body><segment><metadata><OBJECT_NAME>QIANFAN-93</OBJECT_NAME><OBJECT_ID>2025-233C</OBJECT_ID><CENTER_NAME>EARTH</CENTER_NAME><REF_FRAME>TEME</REF_FRAME><TIME_SYSTEM>UTC</TIME_SYSTEM><MEAN_ELEMENT_THEORY>SGP4</MEAN_ELEMENT_THEORY></metadata><data><meanElements><EPOCH>2025-11-23T17:34:51.189888</EPOCH><MEAN_MOTION>14.09986188</MEAN_MOTION><ECCENTRICITY>.0018381</ECCENTRICITY><INCLINATION>88.9970</INCLINATION><RA_OF_ASC_NODE>64.2281</RA_OF_ASC_NODE><ARG_OF_PERICENTER>94.7379</ARG_OF_PERICENTER><MEAN_ANOMALY>265.5905</MEAN_ANOMALY></meanElements><tleParameters><EPHEMERIS_TYPE>0</EPHEMERIS_TYPE><CLASSIFICATION_TYPE>U</CLASSIFICATION_TYPE><NORAD_CAT_ID>66035</NORAD_CAT_ID><ELEMENT_SET_NO>999</ELEMENT_SET_NO><REV_AT_EPOCH>532</REV_AT_EPOCH><BSTAR>.99854E-4</BSTAR><MEAN_MOTION_DOT>.19E-5</MEAN_MOTION_DOT><MEAN_MOTION_DDOT>0</MEAN_MOTION_DDOT></tleParameters></data></segment></body></omm>
<omm id="CCSDS_OMM_VERS" version="2.0">
<header><CREATION_DATE/><ORIGINATOR/></header><body><segment><metadata><OBJECT_NAME>QIANFAN-94</OBJECT_NAME><OBJECT_ID>2025-233D</OBJECT_ID><CENTER_NAME>EARTH</CENTER_NAME><REF_FRAME>TEME</REF_FRAME><TIME_SYSTEM>UTC</TIME_SYSTEM><MEAN_ELEMENT_THEORY>SGP4</MEAN_ELEMENT_THEORY></metadata><data><meanElements><EPOCH>2025-11-23T14:17:09.289824</EPOCH><MEAN_MOTION>14.09916140</MEAN_MOTION><ECCENTRICITY>.0016602</ECCENTRICITY><INCLINATION>88.9964</INCLINATION><RA_OF_ASC_NODE>64.2535</RA_OF_ASC_NODE><ARG_OF_PERICENTER>96.5279</ARG_OF_PERICENTER><MEAN_ANOMALY>263.7796</MEAN_ANOMALY></meanElements><tleParameters><EPHEMERIS_TYPE>0</EPHEMERIS_TYPE><CLASSIFICATION_TYPE>U</CLASSIFICATION_TYPE><NORAD_CAT_ID>66036</NORAD_CAT_ID><ELEMENT_SET_NO>999</ELEMENT_SET_NO><REV_AT_EPOCH>530</REV_AT_EPOCH><BSTAR>.21049E-3</BSTAR><MEAN_MOTION_DOT>.385E-5</MEAN_MOTION_DOT><MEAN_MOTION_DDOT>0</MEAN_MOTION_DDOT></tleParameters></data></segment></body></omm>
<omm id="CCSDS_OMM_VERS" version="2.0">
<header><CREATION_DATE/><ORIGINATOR/></header><body><segment><metadata><OBJECT_NAME>QIANFAN-95</OBJECT_NAME><OBJECT_ID>2025-233E</OBJECT_ID><CENTER_NAME>EARTH</CENTER_NAME><REF_FRAME>TEME</REF_FRAME><TIME_SYSTEM>UTC</TIME_SYSTEM><MEAN_ELEMENT_THEORY>SGP4</MEAN_ELEMENT_THEORY></metadata><data><meanElements><EPOCH>2025-11-23T14:21:15.611904</EPOCH><MEAN_MOTION>14.26192546</MEAN_MOTION><ECCENTRICITY>.0016392</ECCENTRICITY><INCLINATION>88.9965</INCLINATION><RA_OF_ASC_NODE>64.2356</RA_OF_ASC_NODE><ARG_OF_PERICENTER>98.9459</ARG_OF_PERICENTER><MEAN_ANOMALY>261.3591</MEAN_ANOMALY></meanElements><tleParameters><EPHEMERIS_TYPE>0</EPHEMERIS_TYPE><CLASSIFICATION_TYPE>U</CLASSIFICATION_TYPE><NORAD_CAT_ID>66037</NORAD_CAT_ID><ELEMENT_SET_NO>999</ELEMENT_SET_NO><REV_AT_EPOCH>531</REV_AT_EPOCH><BSTAR>.26752E-3</BSTAR><MEAN_MOTION_DOT>.656E-5</MEAN_MOTION_DOT><MEAN_MOTION_DDOT>0</MEAN_MOTION_DDOT></tleParameters></data></segment></body></omm>
<omm id="CCSDS_OMM_VERS" version="2.0">
<header><CREATION_DATE/><ORIGINATOR/></header><body><segment><metadata><OBJECT_NAME>QIANFAN-96</OBJECT_NAME><OBJECT_ID>2025-233F</OBJECT_ID><CENTER_NAME>EARTH</CENTER_NAME><REF_FRAME>TEME</REF_FRAME><TIME_SYSTEM>UTC</TIME_SYSTEM><MEAN_ELEMENT_THEORY>SGP4</MEAN_ELEMENT_THEORY></metadata><data><meanElements><EPOCH>2025-11-23T14:27:16.019136</EPOCH><MEAN_MOTION>14.07739056</MEAN_MOTION><ECCENTRICITY>.0018</ECCENTRICITY><INCLINATION>88.9976</INCLINATION><RA_OF_ASC_NODE>64.2564</RA_OF_ASC_NODE><ARG_OF_PERICENTER>101.5840</ARG_OF_PERICENTER><MEAN_ANOMALY>258.7365</MEAN_ANOMALY></meanElements><tleParameters><EPHEMERIS_TYPE>0</EPHEMERIS_TYPE><CLASSIFICATION_TYPE>U</CLASSIFICATION_TYPE><NORAD_CAT_ID>66038</NORAD_CAT_ID><ELEMENT_SET_NO>999</ELEMENT_SET_NO><REV_AT_EPOCH>530</REV_AT_EPOCH><BSTAR>.2179E-3</BSTAR><MEAN_MOTION_DOT>.383E-5</MEAN_MOTION_DOT><MEAN_MOTION_DDOT>0</MEAN_MOTION_DDOT></tleParameters></data></segment></body></omm>
<omm id="CCSDS_OMM_VERS" version="2.0">
<header><CREATION_DATE/><ORIGINATOR/></header><body><segment><metadata><OBJECT_NAME>QIANFAN-97</OBJECT_NAME><OBJECT_ID>2025-233G</OBJECT_ID><CENTER_NAME>EARTH</CENTER_NAME><REF_FRAME>TEME</REF_FRAME><TIME_SYSTEM>UTC</TIME_SYSTEM><MEAN_ELEMENT_THEORY>SGP4</MEAN_ELEMENT_THEORY></metadata><data><meanElements><EPOCH>2025-11-23T14:17:05.466624</EPOCH><MEAN_MOTION>14.09011606</MEAN_MOTION><ECCENTRICITY>.0018949</ECCENTRICITY><INCLINATION>89.0040</INCLINATION><RA_OF_ASC_NODE>64.2426</RA_OF_ASC_NODE><ARG_OF_PERICENTER>92.5901</ARG_OF_PERICENTER><MEAN_ANOMALY>267.7453</MEAN_ANOMALY></meanElements><tleParameters><EPHEMERIS_TYPE>0</EPHEMERIS_TYPE><CLASSIFICATION_TYPE>U</CLASSIFICATION_TYPE><NORAD_CAT_ID>66039</NORAD_CAT_ID><ELEMENT_SET_NO>999</ELEMENT_SET_NO><REV_AT_EPOCH>530</REV_AT_EPOCH><BSTAR>.2131E-3</BSTAR><MEAN_MOTION_DOT>.384E-5</MEAN_MOTION_DOT><MEAN_MOTION_DDOT>0</MEAN_MOTION_DDOT></tleParameters></data></segment></body></omm>
<omm id="CCSDS_OMM_VERS" version="2.0">
<header><CREATION_DATE/><ORIGINATOR/></header><body><segment><metadata><OBJECT_NAME>QIANFAN-98</OBJECT_NAME><OBJECT_ID>2025-233H</OBJECT_ID><CENTER_NAME>EARTH</CENTER_NAME><REF_FRAME>TEME</REF_FRAME><TIME_SYSTEM>UTC</TIME_SYSTEM><MEAN_ELEMENT_THEORY>SGP4</MEAN_ELEMENT_THEORY></metadata><data><meanElements><EPOCH>2025-11-23T16:08:58.832160</EPOCH><MEAN_MOTION>14.21210686</MEAN_MOTION><ECCENTRICITY>.0016062</ECCENTRICITY><INCLINATION>88.9967</INCLINATION><RA_OF_ASC_NODE>64.2259</RA_OF_ASC_NODE><ARG_OF_PERICENTER>97.9942</ARG_OF_PERICENTER><MEAN_ANOMALY>262.3072</MEAN_ANOMALY></meanElements><tleParameters><EPHEMERIS_TYPE>0</EPHEMERIS_TYPE><CLASSIFICATION_TYPE>U</CLASSIFICATION_TYPE><NORAD_CAT_ID>66040</NORAD_CAT_ID><ELEMENT_SET_NO>999</ELEMENT_SET_NO><REV_AT_EPOCH>532</REV_AT_EPOCH><BSTAR>.26396E-3</BSTAR><MEAN_MOTION_DOT>.589E-5</MEAN_MOTION_DOT><MEAN_MOTION_DDOT>0</MEAN_MOTION_DDOT></tleParameters></data></segment></body></omm>
<omm id="CCSDS_OMM_VERS" version="2.0">
<header><CREATION_DATE/><ORIGINATOR/></header><body><segment><metadata><OBJECT_NAME>QIANFAN-99</OBJECT_NAME><OBJECT_ID>2025-233J</OBJECT_ID><CENTER_NAME>EARTH</CENTER_NAME><REF_FRAME>TEME</REF_FRAME><TIME_SYSTEM>UTC</TIME_SYSTEM><MEAN_ELEMENT_THEORY>SGP4</MEAN_ELEMENT_THEORY></metadata><data><meanElements><EPOCH>2025-11-23T19:22:07.742784</EPOCH><MEAN_MOTION>14.08873684</MEAN_MOTION><ECCENTRICITY>.0017316</ECCENTRICITY><INCLINATION>88.9964</INCLINATION><RA_OF_ASC_NODE>64.2296</RA_OF_ASC_NODE><ARG_OF_PERICENTER>95.6270</ARG_OF_PERICENTER><MEAN_ANOMALY>264.6890</MEAN_ANOMALY></meanElements><tleParameters><EPHEMERIS_TYPE>0</EPHEMERIS_TYPE><CLASSIFICATION_TYPE>U</CLASSIFICATION_TYPE><NORAD_CAT_ID>66041</NORAD_CAT_ID><ELEMENT_SET_NO>999</ELEMENT_SET_NO><REV_AT_EPOCH>533</REV_AT_EPOCH><BSTAR>.21386E-3</BSTAR><MEAN_MOTION_DOT>.384E-5</MEAN_MOTION_DOT><MEAN_MOTION_DDOT>0</MEAN_MOTION_DDOT></tleParameters></data></segment></body></omm>

</ndm>
